KUIPER-00629            
1 69783U 26151W   26200.25002315 -.01234732  00000+0 -45030-1 0  9992
2 69783  51.8788 160.9811 0006424 173.0640 287.9389 15.30384521  2960
KUIPER-00631            
1 69784U 26151X   26200.25002315  .00005131  00000+0  18654-3 0  9993
2 69784  51.8755 160.9634 0008117 172.0235 289.3926 15.29939120  1307
KUIPER-00634            
1 69785U 26151Y   26200.27765007  .00010740  00000+0  29463-3 0  9992
2 69785  51.8781 160.6005 0003682 150.3811 209.7385 15.37805044  2646
KUIPER-00639            
1 69786U 26151Z   26200.29693365 -.00025915  00000+0 -74087-3 0  9996
2 69786  51.8695 160.7195 0009552 174.4078 185.7017 15.35046639  2646
KUIPER-00641            
1 69787U 26151AA  26200.25002315  .00018645  00000+0  56176-3 0  9991
2 69787  51.8681 161.0246 0011473 174.5198 247.4049 15.34308057  3277
KUIPER-00644            
1 69788U 26151AB  26200.25002315  .00025678  00000+0  71682-3 0  9995
2 69788  51.8750 160.8847 0008118 172.9715 320.5134 15.36532063  3577
KUIPER-00646            
1 69789U 26151AC  26200.29555927 -.00066035  00000+0 -18801-2 0  9999
2 69789  51.8703 160.7124 0009096 181.1324 178.9643 15.35627559  2648
KUIPER-00647            
1 69790U 26151AD  26200.30076938  .00021319  00000+0  62667-3 0  9997
2 69790  51.8664 160.7423 0010519 183.8759 176.2147 15.35006699  2647
KUIPER-00662            
1 69791U 26151AE  26200.22592641  .00009620  00000+0  27574-3 0  9992
2 69791  51.8750 160.9998 0008199 173.5382 186.5711 15.36544855  2634
